{"type": "FeatureCollection", "features": [ {"type": "Feature", "properties": {"norad_id": 33905, "name": "COSMOS 2251 DEB", "group": "cosmos-2251-debris", "lat": 47.97726146344662, "lon": 95.63155355119993, "alt_km": 743.2300563061781, "timestamp": "2025-12-24T18:55:56.464748+00:00", "meta": {"OBJECT_NAME": "COSMOS 2251 DEB", "OBJECT_ID": "1993-036DJ", "EPOCH": "2025-12-24T07:12:33.393600", "MEAN_MOTION": 14.35423151, "ECCENTRICITY": 0.00581789, "INCLINATION": 73.8868, "RA_OF_ASC_NODE": 295.246, "ARG_OF_PERICENTER": 182.278, "MEAN_ANOMALY": 304.3937, "EPHEMERIS_TYPE": 0, "CLASSIFICATION_TYPE": "U", "NORAD_CAT_ID": 33905, "ELEMENT_SET_NO": 999, "REV_AT_EPOCH": 87853, "BSTAR": 0.00053407271, "MEAN_MOTION_DOT": 1.537e-05, "MEAN_MOTION_DDOT": 0}, "tle": {"line1": "1 33905U 93036DJ  25358.30038650  .00001537  00000+0  53407-3 0  9996", "line2": "2 33905  73.8868 295.2460 0058178 182.2780 304.3937 14.35423151878536"}}, "geometry": {"type": "Point", "coordinates": [95.63155355119993, 47.97726146344662]}}, {"type": "Feature", "properties": {"norad_id": 33906, "name": "COSMOS 2251 DEB", "group": "cosmos-2251-debris", "lat": -54.59456984154166, "lon": 142.3325305178902, "alt_km": 707.7136750137406, "timestamp": "2025-12-24T18:55:56.464758+00:00", "meta": {"OBJECT_NAME": "COSMOS 2251 DEB", "OBJECT_ID": "1993-036DK", "EPOCH": "2025-12-24T03:03:48.341376", "MEAN_MOTION": 14.57270912, "ECCENTRICITY": 0.00369331, "INCLINATION": 74.031, "RA_OF_ASC_NODE": 299.8321, "ARG_OF_PERICENTER": 327.5201, "MEAN_ANOMALY": 43.4233, "EPHEMERIS_TYPE": 0, "CLASSIFICATION_TYPE": "U", "NORAD_CAT_ID": 33906, "ELEMENT_SET_NO": 999, "REV_AT_EPOCH": 88174, "BSTAR": 0.0018268359, "MEAN_MOTION_DOT": 8.319e-05, "MEAN_MOTION_DDOT": 0}, "tle": {"line1": "1 33906U 93036DK  25358.12764284  .00008319  00000+0  18268-2 0  9996", "line2": "2 33906  74.0310 299.8321 0036933 327.5201  43.4233 14.57270912881741"}}, "geometry": {"type": "Point", "coordinates": [142.3325305178902, -54.59456984154166]}}, {"type": "Feature", "properties": {"norad_id": 33907, "name": "COSMOS 2251 DEB", "group": "cosmos-2251-debris", "lat": 39.904126992219076, "lon": 177.94785457341575, "alt_km": 763.9399840936603, "timestamp": "2025-12-24T18:55:56.464769+00:00", "meta": {"OBJECT_NAME": "COSMOS 2251 DEB", "OBJECT_ID": "1993-036DL", "EPOCH": "2025-12-24T03:29:24.237888", "MEAN_MOTION": 14.30607649, "ECCENTRICITY": 0.01119975, "INCLINATION": 74.07, "RA_OF_ASC_NODE": 12.9342, "ARG_OF_PERICENTER": 64.8974, "MEAN_ANOMALY": 359.4844, "EPHEMERIS_TYPE": 0, "CLASSIFICATION_TYPE": "U", "NORAD_CAT_ID": 33907, "ELEMENT_SET_NO": 999, "REV_AT_EPOCH": 86743, "BSTAR": 0.0019432757, "MEAN_MOTION_DOT": 5.412e-05, "MEAN_MOTION_DDOT": 0}, "tle": {"line1": "1 33907U 93036DL  25358.14541942  .00005412  00000+0  19433-2 0  9999", "line2": "2 33907  74.0700  12.9342 0111997  64.8974 359.4844 14.30607649867434"}}, "geometry": {"type": "Point", "coordinates": [177.94785457341575, 39.904126992219076]}}, {"type": "Feature", "properties": {"norad_id": 33908, "name": "COSMOS 2251 DEB", "group": "cosmos-2251-debris", "lat": -60.045795396200305, "lon": 34.599576873717545, "alt_km": 747.8462787186427, "timestamp": "2025-12-24T18:55:56.464779+00:00", "meta": {"OBJECT_NAME": "COSMOS 2251 DEB", "OBJECT_ID": "1993-036DM", "EPOCH": "2025-12-24T05:50:08.061504", "MEAN_MOTION": 14.07430663, "ECCENTRICITY": 0.0222285, "INCLINATION": 73.8367, "RA_OF_ASC_NODE": 185.3525, "ARG_OF_PERICENTER": 206.7443, "MEAN_ANOMALY": 152.2096, "EPHEMERIS_TYPE": 0, "CLASSIFICATION_TYPE": "U", "NORAD_CAT_ID": 33908, "ELEMENT_SET_NO": 999, "REV_AT_EPOCH": 85635, "BSTAR": 0.0024478089, "MEAN_MOTION_DOT": 5.138e-05, "MEAN_MOTION_DDOT": 0}, "tle": {"line1": "1 33908U 93036DM  25358.24314886  .00005138  00000+0  24478-2 0  9996", "line2": "2 33908  73.8367 185.3525 0222285 206.7443 152.2096 14.07430663856351"}}, "geometry": {"type": "Point", "coordinates": [34.599576873717545, -60.045795396200305]}}, {"type": "Feature", "properties": {"norad_id": 33911, "name": "COSMOS 2251 DEB", "group": "cosmos-2251-debris", "lat": 57.561335841404656, "lon": 165.05302864616235, "alt_km": 629.110449306274, "timestamp": "2025-12-24T18:55:56.464790+00:00", "meta": {"OBJECT_NAME": "COSMOS 2251 DEB", "OBJECT_ID": "1993-036DQ", "EPOCH": "2025-12-22T20:07:55.852896", "MEAN_MOTION": 14.75092709, "ECCENTRICITY": 0.00139875, "INCLINATION": 74.0904, "RA_OF_ASC_NODE": 142.1847, "ARG_OF_PERICENTER": 75.4181, "MEAN_ANOMALY": 74.9634, "EPHEMERIS_TYPE": 0, "CLASSIFICATION_TYPE": "U", "NORAD_CAT_ID": 33911, "ELEMENT_SET_NO": 999, "REV_AT_EPOCH": 88793, "BSTAR": 0.0021527339, "MEAN_MOTION_DOT": 0.00014537, "MEAN_MOTION_DDOT": 0}, "tle": {"line1": "1 33911U 93036DQ  25356.83884089  .00014537  00000+0  21527-2 0  9995", "line2": "2 33911  74.0904 142.1847 0013987  75.4181  74.9634 14.75092709887936"}}, "geometry": {"type": "Point", "coordinates": [165.05302864616235, 57.561335841404656]}}, {"type": "Feature", "properties": {"norad_id": 33912, "name": "COSMOS 2251 DEB", "group": "cosmos-2251-debris", "lat": 27.33010232156663, "lon": 175.53593408895773, "alt_km": 724.1592431825802, "timestamp": "2025-12-24T18:55:56.464800+00:00", "meta": {"OBJECT_NAME": "COSMOS 2251 DEB", "OBJECT_ID": "1993-036DR", "EPOCH": "2025-12-24T04:27:25.079616", "MEAN_MOTION": 14.51957943, "ECCENTRICITY": 0.00113065, "INCLINATION": 74.0329, "RA_OF_ASC_NODE": 168.1627, "ARG_OF_PERICENTER": 247.3479, "MEAN_ANOMALY": 229.8313, "EPHEMERIS_TYPE": 0, "CLASSIFICATION_TYPE": "U", "NORAD_CAT_ID": 33912, "ELEMENT_SET_NO": 999, "REV_AT_EPOCH": 88599, "BSTAR": 0.0008309085, "MEAN_MOTION_DOT": 3.33e-05, "MEAN_MOTION_DDOT": 0}, "tle": {"line1": "1 33912U 93036DR  25358.18570694  .00003330  00000+0  83091-3 0  9994", "line2": "2 33912  74.0329 168.1627 0011306 247.3479 229.8313 14.51957943885998"}}, "geometry": {"type": "Point", "coordinates": [175.53593408895773, 27.33010232156663]}}, {"type": "Feature", "properties": {"norad_id": 33913, "name": "COSMOS 2251 DEB", "group": "cosmos-2251-debris", "lat": -32.036697423440245, "lon": 150.74903399097414, "alt_km": 721.72810139597, "timestamp": "2025-12-24T18:55:56.464810+00:00", "meta": {"OBJECT_NAME": "COSMOS 2251 DEB", "OBJECT_ID": "1993-036DS", "EPOCH": "2025-12-23T11:54:02.602080", "MEAN_MOTION": 14.48527536, "ECCENTRICITY": 0.00481616, "INCLINATION": 74.0323, "RA_OF_ASC_NODE": 163.4923, "ARG_OF_PERICENTER": 264.0515, "MEAN_ANOMALY": 162.2664, "EPHEMERIS_TYPE": 0, "CLASSIFICATION_TYPE": "U", "NORAD_CAT_ID": 33913, "ELEMENT_SET_NO": 999, "REV_AT_EPOCH": 88613, "BSTAR": 0.00051590174, "MEAN_MOTION_DOT": 1.937e-05, "MEAN_MOTION_DDOT": 0}, "tle": {"line1": "1 33913U 93036DS  25357.49586345  .00001937  00000+0  51590-3 0  9998", "line2": "2 33913  74.0323 163.4923 0048161 264.0515 162.2664 14.48527536886139"}}, "geometry": {"type": "Point", "coordinates": [150.74903399097414, -32.036697423440245]}}, {"type": "Feature", "properties": {"norad_id": 33914, "name": "COSMOS 2251 DEB", "group": "cosmos-2251-debris", "lat": -37.359430619838676, "lon": -172.18635166824416, "alt_km": 1116.6471590698484, "timestamp": "2025-12-24T18:55:56.464821+00:00", "meta": {"OBJECT_NAME": "COSMOS 2251 DEB", "OBJECT_ID": "1993-036DT", "EPOCH": "2025-12-24T04:16:03.472608", "MEAN_MOTION": 13.71991415, "ECCENTRICITY": 0.03007926, "INCLINATION": 74.0912, "RA_OF_ASC_NODE": 356.2445, "ARG_OF_PERICENTER": 96.5112, "MEAN_ANOMALY": 342.7852, "EPHEMERIS_TYPE": 0, "CLASSIFICATION_TYPE": "U", "NORAD_CAT_ID": 33914, "ELEMENT_SET_NO": 999, "REV_AT_EPOCH": 84238, "BSTAR": 0.00024756127, "MEAN_MOTION_DOT": 2.91e-06, "MEAN_MOTION_DDOT": 0}, "tle": {"line1": "1 33914U 93036DT  25358.17781797  .00000291  00000+0  24756-3 0  9999", "line2": "2 33914  74.0912 356.2445 0300792  96.5112 342.7852 13.71991415842386"}}, "geometry": {"type": "Point", "coordinates": [-172.18635166824416, -37.359430619838676]}}, {"type": "Feature", "properties": {"norad_id": 33915, "name": "COSMOS 2251 DEB", "group": "cosmos-2251-debris", "lat": -13.424636316378134, "lon": -164.0592091062775, "alt_km": 781.408101396185, "timestamp": "2025-12-24T18:55:56.464831+00:00", "meta": {"OBJECT_NAME": "COSMOS 2251 DEB", "OBJECT_ID": "1993-036DU", "EPOCH": "2025-12-24T03:16:12.008640", "MEAN_MOTION": 14.35106924, "ECCENTRICITY": 0.01040028, "INCLINATION": 74.043, "RA_OF_ASC_NODE": 13.2204, "ARG_OF_PERICENTER": 102.6789, "MEAN_ANOMALY": 319.7721, "EPHEMERIS_TYPE": 0, "CLASSIFICATION_TYPE": "U", "NORAD_CAT_ID": 33915, "ELEMENT_SET_NO": 999, "REV_AT_EPOCH": 87921, "BSTAR": 0.00032527337, "MEAN_MOTION_DOT": 9.61e-06, "MEAN_MOTION_DDOT": 0}, "tle": {"line1": "1 33915U 93036DU  25358.13625010  .00000961  00000+0  32527-3 0  9990", "line2": "2 33915  74.0430  13.2204 0104002 102.6789 319.7721 14.35106924879215"}}, "geometry": {"type": "Point", "coordinates": [-164.0592091062775, -13.424636316378134]}}, {"type": "Feature", "properties": {"norad_id": 33916, "name": "COSMOS 2251 DEB", "group": "cosmos-2251-debris", "lat": -21.109291398866908, "lon": 14.453210854751953, "alt_km": 1209.9378055322159, "timestamp": "2025-12-24T18:55:56.464841+00:00", "meta": {"OBJECT_NAME": "COSMOS 2251 DEB", "OBJECT_ID": "1993-036DV", "EPOCH": "2025-12-24T01:39:24.968736", "MEAN_MOTION": 13.68625176, "ECCENTRICITY": 0.03248337, "INCLINATION": 74.0519, "RA_OF_ASC_NODE": 21.9731, "ARG_OF_PERICENTER": 191.6892, "MEAN_ANOMALY": 199.1974, "EPHEMERIS_TYPE": 0, "CLASSIFICATION_TYPE": "U", "NORAD_CAT_ID": 33916, "ELEMENT_SET_NO": 999, "REV_AT_EPOCH": 84046, "BSTAR": 0.00030647849, "MEAN_MOTION_DOT": 3.58e-06, "MEAN_MOTION_DDOT": 0}, "tle": {"line1": "1 33916U 93036DV  25358.06903899  .00000358  00000+0  30648-3 0  9999", "line2": "2 33916  74.0519  21.9731 0324833 191.6892 199.1974 13.68625176840469"}}, "geometry": {"type": "Point", "coordinates": [14.453210854751953, -21.109291398866908]}}]}